[
    {
        "Altitude(m)": 703187.0872043057,
        "Argument of Periapsis(deg)": 0.0011390121186627068,
        "Eccentricity": 0.0,
        "Inclination(deg)": 45.0,
        "Latitude(deg)": 21.795984052749787,
        "Longitude(deg)": 121.51338677122925,
        "Mean Anomaly(deg)": 148.42602166474805,
        "RAAN(deg)": 64.99892480585419,
        "Satellite Name": "Constellation 1 295",
        "Satellite Number": 295,
        "Semi-Major Axis(m)": 7083131.272910544,
        "Time(s)": 19
    },
    {
        "Altitude(m)": 703183.2098950899,
        "Argument of Periapsis(deg)": 0.0011989601249081123,
        "Eccentricity": 0.0,
        "Inclination(deg)": 45.0,
        "Latitude(deg)": 21.75636337561538,
        "Longitude(deg)": 121.55894859322068,
        "Mean Anomaly(deg)": 148.48672280499798,
        "RAAN(deg)": 64.9988682166886,
        "Satellite Name": "Constellation 1 295",
        "Satellite Number": 295,
        "Semi-Major Axis(m)": 7083131.272910544,
        "Time(s)": 20
    },
    {
        "Altitude(m)": 703179.3450612727,
        "Argument of Periapsis(deg)": 0.001258908131153518,
        "Eccentricity": 0.0,
        "Inclination(deg)": 45.0,
        "Latitude(deg)": 21.716727625422838,
        "Longitude(deg)": 121.60448316091453,
        "Mean Anomaly(deg)": 148.54742394524786,
        "RAAN(deg)": 64.99881162752304,
        "Satellite Name": "Constellation 1 295",
        "Satellite Number": 295,
        "Semi-Major Axis(m)": 7083131.272910544,
        "Time(s)": 21
    },
    {
        "Altitude(m)": 703175.492736564,
        "Argument of Periapsis(deg)": 0.0013188561373989236,
        "Eccentricity": 0.0,
        "Inclination(deg)": 45.0,
        "Latitude(deg)": 21.677076840366873,
        "Longitude(deg)": 121.6499903655211,
        "Mean Anomaly(deg)": 148.6081250854978,
        "RAAN(deg)": 64.99875503835747,
        "Satellite Name": "Constellation 1 295",
        "Satellite Number": 295,
        "Semi-Major Axis(m)": 7083131.272910544,
        "Time(s)": 22
    },
    {
        "Altitude(m)": 703171.652954627,
        "Argument of Periapsis(deg)": 0.0013788041436443293,
        "Eccentricity": 0.0,
        "Inclination(deg)": 45.0,
        "Latitude(deg)": 21.637411058588274,
        "Longitude(deg)": 121.69547060251857,
        "Mean Anomaly(deg)": 148.66882622574764,
        "RAAN(deg)": 64.9986984491919,
        "Satellite Name": "Constellation 1 295",
        "Satellite Number": 295,
        "Semi-Major Axis(m)": 7083131.272910544,
        "Time(s)": 23
    },
    {
        "Altitude(m)": 703167.8257490809,
        "Argument of Periapsis(deg)": 0.001438752149889735,
        "Eccentricity": 0.0,
        "Inclination(deg)": 45.0,
        "Latitude(deg)": 21.597730318174406,
        "Longitude(deg)": 121.74092376307024,
        "Mean Anomaly(deg)": 148.72952736599757,
        "RAAN(deg)": 64.99864186002634,
        "Satellite Name": "Constellation 1 295",
        "Satellite Number": 295,
        "Semi-Major Axis(m)": 7083131.272910544,
        "Time(s)": 24
    },
    {
        "Altitude(m)": 703164.0111534969,
        "Argument of Periapsis(deg)": 0.0014987001561351404,
        "Eccentricity": 0.0,
        "Inclination(deg)": 45.0,
        "Latitude(deg)": 21.558034657159364,
        "Longitude(deg)": 121.78634990641271,
        "Mean Anomaly(deg)": 148.79022850624744,
        "RAAN(deg)": 64.99858527086076,
        "Satellite Name": "Constellation 1 295",
        "Satellite Number": 295,
        "Semi-Major Axis(m)": 7083131.272910544,
        "Time(s)": 25
    },
    {
        "Altitude(m)": 703160.2092014004,
        "Argument of Periapsis(deg)": 0.001558648162380546,
        "Eccentricity": 0.0,
        "Inclination(deg)": 45.0,
        "Latitude(deg)": 21.518324113523786,
        "Longitude(deg)": 121.8317490917588,
        "Mean Anomaly(deg)": 148.85092964649738,
        "RAAN(deg)": 64.99852868169519,
        "Satellite Name": "Constellation 1 295",
        "Satellite Number": 295,
        "Semi-Major Axis(m)": 7083131.272910544,
        "Time(s)": 26
    },
    {
        "Altitude(m)": 703156.4199262728,
        "Argument of Periapsis(deg)": 0.0016185961686259519,
        "Eccentricity": 0.0,
        "Inclination(deg)": 45.0,
        "Latitude(deg)": 21.478598725195102,
        "Longitude(deg)": 121.87712137829726,
        "Mean Anomaly(deg)": 148.91163078674725,
        "RAAN(deg)": 64.99847209252964,
        "Satellite Name": "Constellation 1 295",
        "Satellite Number": 295,
        "Semi-Major Axis(m)": 7083131.272910544,
        "Time(s)": 27
    },
    {
        "Altitude(m)": 703152.6433615403,
        "Argument of Periapsis(deg)": 0.0016785441748713573,
        "Eccentricity": 0.0,
        "Inclination(deg)": 45.0,
        "Latitude(deg)": 21.43885853004773,
        "Longitude(deg)": 121.92246682519276,
        "Mean Anomaly(deg)": 148.97233192699719,
        "RAAN(deg)": 64.99841550336406,
        "Satellite Name": "Constellation 1 295",
        "Satellite Number": 295,
        "Semi-Major Axis(m)": 7083131.272910544,
        "Time(s)": 28
    },
    {
        "Altitude(m)": 703148.8795405962,
        "Argument of Periapsis(deg)": 0.001738492181116763,
        "Eccentricity": 0.0,
        "Inclination(deg)": 45.0,
        "Latitude(deg)": 21.399103565903044,
        "Longitude(deg)": 121.96778549158563,
        "Mean Anomaly(deg)": 149.03303306724706,
        "RAAN(deg)": 64.99835891419849,
        "Satellite Name": "Constellation 1 295",
        "Satellite Number": 295,
        "Semi-Major Axis(m)": 7083131.272910544,
        "Time(s)": 29
    },
    {
        "Altitude(m)": 703145.1284967773,
        "Argument of Periapsis(deg)": 0.0017984401873621684,
        "Eccentricity": 0.0,
        "Inclination(deg)": 45.0,
        "Latitude(deg)": 21.359333870529657,
        "Longitude(deg)": 122.01307726849483,
        "Mean Anomaly(deg)": 149.093734207497,
        "RAAN(deg)": 64.99830232503291,
        "Satellite Name": "Constellation 1 295",
        "Satellite Number": 295,
        "Semi-Major Axis(m)": 7083131.272910544,
        "Time(s)": 30
    },
    {
        "Altitude(m)": 703141.3902633744,
        "Argument of Periapsis(deg)": 0.0018583881936075745,
        "Eccentricity": 0.0,
        "Inclination(deg)": 45.0,
        "Latitude(deg)": 21.319549481643246,
        "Longitude(deg)": 122.05834255120598,
        "Mean Anomaly(deg)": 149.15443534774687,
        "RAAN(deg)": 64.99824573586736,
        "Satellite Name": "Constellation 1 295",
        "Satellite Number": 295,
        "Semi-Major Axis(m)": 7083131.272910544,
        "Time(s)": 31
    },
    {
        "Altitude(m)": 703137.6648736293,
        "Argument of Periapsis(deg)": 0.0019183361998529795,
        "Eccentricity": 0.0,
        "Inclination(deg)": 45.0,
        "Latitude(deg)": 21.279750436907104,
        "Longitude(deg)": 122.1035812306888,
        "Mean Anomaly(deg)": 149.21513648799677,
        "RAAN(deg)": 64.99818914670178,
        "Satellite Name": "Constellation 1 295",
        "Satellite Number": 295,
        "Semi-Major Axis(m)": 7083131.272910544,
        "Time(s)": 32
    },
    {
        "Altitude(m)": 703133.9523607421,
        "Argument of Periapsis(deg)": 0.0019782842060983856,
        "Eccentricity": 0.0,
        "Inclination(deg)": 45.0,
        "Latitude(deg)": 21.239936773931902,
        "Longitude(deg)": 122.14879336598541,
        "Mean Anomaly(deg)": 149.27583762824665,
        "RAAN(deg)": 64.99813255753621,
        "Satellite Name": "Constellation 1 295",
        "Satellite Number": 295,
        "Semi-Major Axis(m)": 7083131.272910544,
        "Time(s)": 33
    },
    {
        "Altitude(m)": 703130.2527578621,
        "Argument of Periapsis(deg)": 0.0020382322123437906,
        "Eccentricity": 0.0,
        "Inclination(deg)": 45.0,
        "Latitude(deg)": 21.20010853027583,
        "Longitude(deg)": 122.19397901611309,
        "Mean Anomaly(deg)": 149.33653876849658,
        "RAAN(deg)": 64.99807596837063,
        "Satellite Name": "Constellation 1 295",
        "Satellite Number": 295,
        "Semi-Major Axis(m)": 7083131.272910544,
        "Time(s)": 34
    },
    {
        "Altitude(m)": 703126.5660980903,
        "Argument of Periapsis(deg)": 0.002098180218589197,
        "Eccentricity": 0.0,
        "Inclination(deg)": 45.0,
        "Latitude(deg)": 21.16026574344499,
        "Longitude(deg)": 122.23913824006382,
        "Mean Anomaly(deg)": 149.39723990874643,
        "RAAN(deg)": 64.99801937920508,
        "Satellite Name": "Constellation 1 295",
        "Satellite Number": 295,
        "Semi-Major Axis(m)": 7083131.272910544,
        "Time(s)": 35
    },
    {
        "Altitude(m)": 703122.8924144824,
        "Argument of Periapsis(deg)": 0.002158128224834602,
        "Eccentricity": 0.0,
        "Inclination(deg)": 45.0,
        "Latitude(deg)": 21.120408450893216,
        "Longitude(deg)": 122.28427109680469,
        "Mean Anomaly(deg)": 149.45794104899636,
        "RAAN(deg)": 64.99796279003951,
        "Satellite Name": "Constellation 1 295",
        "Satellite Number": 295,
        "Semi-Major Axis(m)": 7083131.272910544,
        "Time(s)": 36
    },
    {
        "Altitude(m)": 703119.231740041,
        "Argument of Periapsis(deg)": 0.002218076231080008,
        "Eccentricity": 0.0,
        "Inclination(deg)": 45.0,
        "Latitude(deg)": 21.080536690022473,
        "Longitude(deg)": 122.32937747718027,
        "Mean Anomaly(deg)": 149.51864218924624,
        "RAAN(deg)": 64.99790620087393,
        "Satellite Name": "Constellation 1 295",
        "Satellite Number": 295,
        "Semi-Major Axis(m)": 7083131.272910544,
        "Time(s)": 37
    }
]